{
    "links": {
        "self": "http://www.neowsapp.com/rest/v1/neo/3596963?api_key=iIulBulltgU6a56xZRHN4H3l9WmuAYTsLGpBGhQ2"
    },
    "id": "3596963",
    "neo_reference_id": "3596963",
    "name": "(2012 BB102)",
    "designation": "2012 BB102",
    "nasa_jpl_url": "http://ssd.jpl.nasa.gov/sbdb.cgi?sstr=3596963",
    "absolute_magnitude_h": 24.0,
    "estimated_diameter": {
        "kilometers": {
            "estimated_diameter_min": 0.0421264611,
            "estimated_diameter_max": 0.0941976306
        },
        "meters": {
            "estimated_diameter_min": 42.1264610556,
            "estimated_diameter_max": 94.1976305719
        },
        "miles": {
            "estimated_diameter_min": 0.0261761612,
            "estimated_diameter_max": 0.0585316759
        },
        "feet": {
            "estimated_diameter_min": 138.2101784897,
            "estimated_diameter_max": 309.0473542854
        }
    },
    "is_potentially_hazardous_asteroid": false,
    "close_approach_data": [
        {
            "close_approach_date": "2012-02-05",
            "close_approach_date_full": "2012-Feb-05 21:19",
            "epoch_date_close_approach": 1328476740000,
            "relative_velocity": {
                "kilometers_per_second": "11.2792317047",
                "kilometers_per_hour": "40605.2341368466",
                "miles_per_hour": "25230.5134001978"
            },
            "miss_distance": {
                "astronomical": "0.151196013",
                "lunar": "58.815249057",
                "kilometers": "22618601.49729231",
                "miles": "14054547.252401478"
            },
            "orbiting_body": "Earth"
        }
    ],
    "orbital_data": {
        "orbit_id": "4",
        "orbit_determination_date": "2017-04-06 08:51:07",
        "first_observation_date": "2012-01-30",
        "last_observation_date": "2012-01-31",
        "data_arc_in_days": 1,
        "observations_used": 15,
        "orbit_uncertainty": "9",
        "minimum_orbit_intersection": ".150747",
        "jupiter_tisserand_invariant": "4.678",
        "epoch_osculation": "2455957.5",
        "eccentricity": ".1852686276827427",
        "semi_major_axis": "1.394678900535616",
        "inclination": "21.44053750278053",
        "ascending_node_longitude": "315.4398033024103",
        "orbital_period": "601.602694771504",
        "perihelion_distance": "1.136288654575306",
        "perihelion_argument": "184.0542406893504",
        "aphelion_distance": "1.653069146495926",
        "perihelion_time": "2455967.675513401099",
        "mean_anomaly": "353.910956755626",
        "mean_motion": ".5984015748744815",
        "equinox": "J2000",
        "orbit_class": {
            "orbit_class_type": "AMO",
            "orbit_class_description": "Near-Earth asteroid orbits similar to that of 1221 Amor",
            "orbit_class_range": "1.017 AU < q (perihelion) < 1.3 AU"
        }
    },
    "is_sentry_object": false
}